[{"OBJECT_NAME":"KUIPER-00091","OBJECT_ID":"2025-151W","EPOCH":"2026-03-09T21:08:44.948256","MEAN_MOTION":14.79868428,"ECCENTRICITY":0.00010582,"INCLINATION":51.9005,"RA_OF_ASC_NODE":282.2615,"ARG_OF_PERICENTER":116.1118,"MEAN_ANOMALY":243.9954,"EPHEMERIS_TYPE":0,"CLASSIFICATION_TYPE":"U","NORAD_CAT_ID":64836,"ELEMENT_SET_NO":999,"REV_AT_EPOCH":3557,"BSTAR":0.00055851015,"MEAN_MOTION_DOT":4.033e-5,"MEAN_MOTION_DDOT":0},{"OBJECT_NAME":"COSMOS 2251 DEB","OBJECT_ID":"1993-036ABE","EPOCH":"2026-03-09T18:24:38.234016","MEAN_MOTION":14.79719145,"ECCENTRICITY":0.00535362,"INCLINATION":74.0436,"RA_OF_ASC_NODE":70.7267,"ARG_OF_PERICENTER":120.1044,"MEAN_ANOMALY":240.5455,"EPHEMERIS_TYPE":0,"CLASSIFICATION_TYPE":"U","NORAD_CAT_ID":34815,"ELEMENT_SET_NO":999,"REV_AT_EPOCH":89914,"BSTAR":0.00087420865,"MEAN_MOTION_DOT":6.703e-5,"MEAN_MOTION_DDOT":0}]
